EUTELSAT 7A             
1 28187U 04008A   25240.64291659  .00000104  00000+0  00000+0 0  9996
2 28187   5.0818  75.5036 0001001 110.0661 243.7776  1.00272916 78417
EUTELSAT 174A           
1 28924U 05052A   25240.84779749  .00000011  00000+0  00000+0 0  9995
2 28924   3.4726  80.1709 0006109  74.8661 301.5025  1.00269928 49402
EUTELSAT HOTBIRD 13B    
1 29270U 06032A   25240.91919738  .00000158  00000+0  00000+0 0  9993
2 29270   0.9009  85.5298 0004038  66.7597 189.0733  1.00273687 44375
EUTELSAT HOTBIRD 13C    
1 33459U 08065A   25240.88217502 -.00000098  00000+0  00000+0 0  9995
2 33459   2.1933  82.6897 0003936  92.9584 106.7726  1.00272687 44417
EUTELSAT 36B            
1 36101U 09065A   25240.91386731  .00000115  00000+0  00000+0 0  9997
2 36101   0.0522 327.4326 0005793 190.0445 199.3842  1.00270011 57770
EUTELSAT KA-SAT 9A      
1 37258U 10069A   25240.67229671  .00000063  00000+0  00000+0 0  9991
2 37258   0.0482 319.5924 0003861 173.8265  94.7186  1.00272826 41079
EUTELSAT 7 WEST A       
1 37816U 11051A   25240.31221648 -.00000059  00000+0  00000+0 0  9996
2 37816   0.0697  22.7916 0005434 144.2613 274.8052  1.00272739 50951
EUTELSAT 16A            
1 37836U 11057A   25240.93031021  .00000106  00000+0  00000+0 0  9998
2 37836   0.0658   2.8173 0005401 153.7796 171.6816  1.00272020  4397
